[{"OBJECT_NAME":"YAOGAN-43 01D","OBJECT_ID":"2024-148D","EPOCH":"2026-03-09T10:27:16.254720","MEAN_MOTION":15.28369377,"ECCENTRICITY":0.00025569,"INCLINATION":35.001,"RA_OF_ASC_NODE":61.7102,"ARG_OF_PERICENTER":326.2473,"MEAN_ANOMALY":33.808,"EPHEMERIS_TYPE":0,"CLASSIFICATION_TYPE":"U","NORAD_CAT_ID":60461,"ELEMENT_SET_NO":999,"REV_AT_EPOCH":8700,"BSTAR":0.00037765912,"MEAN_MOTION_DOT":0.00010676,"MEAN_MOTION_DDOT":0},{"OBJECT_NAME":"STARLINK-34907","OBJECT_ID":"2025-176R","EPOCH":"2026-03-09T12:26:10.412448","MEAN_MOTION":15.30192945,"ECCENTRICITY":9.626e-5,"INCLINATION":53.1578,"RA_OF_ASC_NODE":153.5626,"ARG_OF_PERICENTER":85.5613,"MEAN_ANOMALY":274.5498,"EPHEMERIS_TYPE":0,"CLASSIFICATION_TYPE":"U","NORAD_CAT_ID":65213,"ELEMENT_SET_NO":999,"REV_AT_EPOCH":3309,"BSTAR":0.0011126903,"MEAN_MOTION_DOT":0.00032734,"MEAN_MOTION_DDOT":0}]
